[{"OBJECT_NAME":"NANOSATC-BR1","OBJECT_ID":"2014-033Q","EPOCH":"2026-03-09T23:35:03.168384","MEAN_MOTION":15.28136801,"ECCENTRICITY":0.00046435,"INCLINATION":98.0845,"RA_OF_ASC_NODE":92.7804,"ARG_OF_PERICENTER":147.6715,"MEAN_ANOMALY":212.4808,"EPHEMERIS_TYPE":0,"CLASSIFICATION_TYPE":"U","NORAD_CAT_ID":40024,"ELEMENT_SET_NO":999,"REV_AT_EPOCH":63881,"BSTAR":0.00074295057,"MEAN_MOTION_DOT":0.00020336,"MEAN_MOTION_DDOT":0},{"OBJECT_NAME":"STARLINK-30760","OBJECT_ID":"2023-167N","EPOCH":"2026-03-09T12:41:23.312256","MEAN_MOTION":15.26739238,"ECCENTRICITY":0.0001007,"INCLINATION":42.9998,"RA_OF_ASC_NODE":144.0264,"ARG_OF_PERICENTER":208.5156,"MEAN_ANOMALY":151.564,"EPHEMERIS_TYPE":0,"CLASSIFICATION_TYPE":"U","NORAD_CAT_ID":58187,"ELEMENT_SET_NO":999,"REV_AT_EPOCH":13096,"BSTAR":-5.2348e-5,"MEAN_MOTION_DOT":-1.663e-5,"MEAN_MOTION_DDOT":0}]
