NANOSATC-BR1            
1 40024U 14033Q   26068.98267556  .00020336  00000+0  74295-3 0  9994
2 40024  98.0845  92.7804 0004644 147.6715 212.4808 15.28136801638811
STARLINK-30760          
1 58187U 23167N   26068.52874204 -.00001663  00000+0 -52348-4 0  9995
2 58187  42.9998 144.0264 0001007 208.5156 151.5640 15.26739238130965
